OBJECT_NAME,OBJECT_ID,EPOCH,MEAN_MOTION,ECCENTRICITY,INCLINATION,RA_OF_ASC_NODE,ARG_OF_PERICENTER,MEAN_ANOMALY,EPHEMERIS_TYPE,CLASSIFICATION_TYPE,NORAD_CAT_ID,ELEMENT_SET_NO,REV_AT_EPOCH,BSTAR,MEAN_MOTION_DOT,MEAN_MOTION_DDOT
QPS-SAR-8 (AMATERU-IV),2024-149CC,2026-06-27T18:30:02.730816,15.04234221,.00041311,97.6667,257.8314,84.1462,276.0235,0,U,60542,999,10186,.45566086E-3,.6276E-4,0
ARCTIC WEATHER SATELLITE,2024-149CD,2026-06-27T18:22:40.443168,14.89798184,.00036495,97.6799,248.9289,84.3724,275.7910,0,U,60543,999,10087,.85550214E-4,.767E-5,0
CAPELLA-15 (ACADIA-5),2024-149CE,2026-06-27T21:59:08.178432,14.92388037,.0004191,97.6774,251.5511,45.4000,314.7560,0,U,60544,999,10145,.3435331E-3,.3462E-4,0
HAWK-10B,2024-149CF,2026-06-27T22:25:31.146528,14.96541474,.00063675,97.6808,254.0055,64.5276,295.6604,0,U,60545,999,10159,.12835458E-3,.1403E-4,0
ICEYE-X39,2024-149CG,2026-06-27T21:13:20.068320,14.99957553,.00064273,97.6764,255.7618,91.4393,268.7567,0,U,60546,999,10172,.27416221E-3,.3348E-4,0
UMBRA-10,2024-149CH,2026-06-27T19:26:52.834272,15.18352184,.00004268,97.6982,266.2276,171.8127,188.3113,0,U,60547,999,10234,.76129645E-3,.15587E-3,0
ICEYE-X33,2024-149CJ,2026-06-27T18:27:51.667200,15.00901828,.0002659,97.7346,257.8505,60.6982,299.4508,0,U,60548,999,10179,.37251369E-3,.4683E-4,0
ICEYE-X40,2024-149CK,2026-06-27T22:10:01.492896,14.97972148,.00056533,97.6811,255.2476,50.1343,310.0376,0,U,60549,999,10168,.10192632E-3,.1145E-4,0
SATELIOT_1,2024-149CL,2026-06-27T17:07:24.780000,14.98111629,.00078548,97.6757,254.4375,47.9171,312.2719,0,U,60550,999,10164,.13127483E-3,.1497E-4,0
BRO-14,2024-149CM,2026-06-27T18:17:22.803936,14.96202063,.00081826,97.6875,254.3498,69.1234,291.0863,0,U,60551,999,10157,.15583444E-3,.17E-4,0
SATELIOT_3,2024-149CN,2026-06-27T22:57:27.610848,14.98096189,.00062238,97.6819,255.4756,62.8146,297.3710,0,U,60552,999,10169,.23132736E-3,.2681E-4,0
BRO-15,2024-149CP,2026-06-27T22:41:11.296896,14.96180143,.00090653,97.6804,254.1218,59.7877,300.4241,0,U,60553,999,10161,.2286986E-3,.2521E-4,0
UM5-RIBAT,2024-149CQ,2026-06-27T19:18:15.848640,15.01131837,.00027025,97.6629,256.4612,44.5648,315.5793,0,U,60554,999,10178,.24989271E-3,.3141E-4,0
UM5-EOSAT,2024-149CR,2026-06-27T21:37:00.993216,15.01613785,.00091263,97.6749,257.5121,82.7237,277.5025,0,U,60555,999,10182,.3260163E-3,.4173E-4,0
LASARSAT,2024-247Q,2026-06-27T22:56:34.266624,15.46981123,.0007068,44.9721,201.6735,37.6087,322.5296,0,U,62391,999,8498,.56627986E-3,.28991E-3,0
CROCUBE,2024-247T,2026-06-27T08:38:18.755520,15.48916422,.00069657,44.9690,202.1892,37.4943,322.6433,0,U,62394,999,8492,.68076562E-3,.37427E-3,0
TEVEL2-4,2025-052D,2026-06-27T16:17:56.111424,15.34970355,.00048165,97.3898,75.0900,83.9278,276.2514,0,U,63213,999,7172,.54141956E-3,.18314E-3,0
TEVEL2-5,2025-052E,2026-06-27T23:04:42.830976,15.34803473,.00047671,97.3898,75.3176,85.2534,274.9254,0,U,63214,999,7176,.53187961E-3,.17894E-3,0
TEVEL2-6,2025-052F,2026-06-27T23:22:49.407744,15.34768423,.00046225,97.3903,75.3149,85.5133,274.6639,0,U,63215,999,7176,.54213281E-3,.1822E-3,0
TEVEL2-1,2025-052H,2026-06-27T22:36:09.920736,15.34217812,.00050002,97.3869,74.8938,93.0368,267.1448,0,U,63217,999,7174,.5267071E-3,.17392E-3,0
TEVEL2-3,2025-052J,2026-06-27T16:12:12.754368,15.34268290,.00048814,97.3877,74.6501,94.2847,265.8954,0,U,63218,999,7170,.53681985E-3,.17756E-3,0
TEVEL2-2,2025-052K,2026-06-27T16:20:50.698176,15.34219426,.00050161,97.3873,74.6358,93.8632,266.3184,0,U,63219,999,7170,.51178258E-3,.16897E-3,0
TEVEL2-9,2025-052AD,2026-06-27T16:07:58.668384,15.32210975,.00083025,97.3934,73.9793,103.0341,257.1828,0,U,63237,999,7163,.51174127E-3,.15869E-3,0
TEVEL2-7,2025-052AE,2026-06-27T23:26:03.922656,15.31916653,.00083708,97.3939,74.1944,102.4265,257.7914,0,U,63238,999,7167,.50544504E-3,.15528E-3,0
TEVEL2-8,2025-052AF,2026-06-27T23:38:06.030528,15.31902386,.00084099,97.3936,74.1792,103.1017,257.1163,0,U,63239,999,7167,.52787657E-3,.16215E-3,0
FORESAIL-1 PRIME,2025-276DS,2026-06-27T03:25:56.907264,15.18788261,.00038901,97.4203,251.2317,83.4614,276.7063,0,U,66778,999,3191,.26439553E-3,.5433E-4,0
