QPS-SAR-8 (AMATERU-IV)  
1 60542U 24149CC  26178.77086494  .00006276  00000+0  45566-3 0  9995
2 60542  97.6667 257.8314 0004131  84.1462 276.0235 15.04234221101869
ARCTIC WEATHER SATELLITE
1 60543U 24149CD  26178.76574587  .00000767  00000+0  85550-4 0  9997
2 60543  97.6799 248.9289 0003649  84.3724 275.7910 14.89798184100875
CAPELLA-15 (ACADIA-5)   
1 60544U 24149CE  26178.91606688  .00003462  00000+0  34353-3 0  9992
2 60544  97.6774 251.5511 0004191  45.4000 314.7560 14.92388037101451
HAWK-10B                
1 60545U 24149CF  26178.93438827  .00001403  00000+0  12835-3 0  9997
2 60545  97.6808 254.0055 0006367  64.5276 295.6604 14.96541474101596
ICEYE-X39               
1 60546U 24149CG  26178.88426005  .00003348  00000+0  27416-3 0  9998
2 60546  97.6764 255.7618 0006427  91.4393 268.7567 14.99957553101723
UMBRA-10                
1 60547U 24149CH  26178.81033373  .00015587  00000+0  76130-3 0  9999
2 60547  97.6982 266.2276 0000426 171.8127 188.3113 15.18352184102348
ICEYE-X33               
1 60548U 24149CJ  26178.76934800  .00004683  00000+0  37251-3 0  9995
2 60548  97.7346 257.8505 0002659  60.6982 299.4508 15.00901828101795
ICEYE-X40               
1 60549U 24149CK  26178.92362839  .00001145  00000+0  10193-3 0  9997
2 60549  97.6811 255.2476 0005653  50.1343 310.0376 14.97972148101682
SATELIOT_1              
1 60550U 24149CL  26178.71348125  .00001497  00000+0  13127-3 0  9998
2 60550  97.6757 254.4375 0007854  47.9171 312.2719 14.98111629101641
BRO-14                  
1 60551U 24149CM  26178.76206949  .00001700  00000+0  15583-3 0  9996
2 60551  97.6875 254.3498 0008182  69.1234 291.0863 14.96202063101576
SATELIOT_3              
1 60552U 24149CN  26178.95656957  .00002681  00000+0  23133-3 0  9995
2 60552  97.6819 255.4756 0006223  62.8146 297.3710 14.98096189101695
BRO-15                  
1 60553U 24149CP  26178.94526964  .00002521  00000+0  22870-3 0  9999
2 60553  97.6804 254.1218 0009065  59.7877 300.4241 14.96180143101611
UM5-RIBAT               
1 60554U 24149CQ  26178.80435010  .00003141  00000+0  24989-3 0  9998
2 60554  97.6629 256.4612 0002702  44.5648 315.5793 15.01131837101789
UM5-EOSAT               
1 60555U 24149CR  26178.90070594  .00004173  00000+0  32602-3 0  9999
2 60555  97.6749 257.5121 0009126  82.7237 277.5025 15.01613785101822
LASARSAT                
1 62391U 24247Q   26178.95595216  .00028991  00000+0  56628-3 0  9994
2 62391  44.9721 201.6735 0007068  37.6087 322.5296 15.46981123 84984
CROCUBE                 
1 62394U 24247T   26178.35993930  .00037427  00000+0  68077-3 0  9991
2 62394  44.9690 202.1892 0006965  37.4943 322.6433 15.48916422 84926
TEVEL2-4                
1 63213U 25052D   26178.67912166  .00018314  00000+0  54142-3 0  9996
2 63213  97.3898  75.0900 0004816  83.9278 276.2514 15.34970355 71724
TEVEL2-5                
1 63214U 25052E   26178.96160684  .00017894  00000+0  53188-3 0  9990
2 63214  97.3898  75.3176 0004767  85.2534 274.9254 15.34803473 71764
TEVEL2-6                
1 63215U 25052F   26178.97418296  .00018220  00000+0  54213-3 0  9991
2 63215  97.3903  75.3149 0004622  85.5133 274.6639 15.34768423 71769
TEVEL2-1                
1 63217U 25052H   26178.94178149  .00017392  00000+0  52671-3 0  9995
2 63217  97.3869  74.8938 0005000  93.0368 267.1448 15.34217812 71741
TEVEL2-3                
1 63218U 25052J   26178.67514762  .00017756  00000+0  53682-3 0  9998
2 63218  97.3877  74.6501 0004881  94.2847 265.8954 15.34268290 71705
TEVEL2-2                
1 63219U 25052K   26178.68114234  .00016897  00000+0  51178-3 0  9993
2 63219  97.3873  74.6358 0005016  93.8632 266.3184 15.34219426 71708
TEVEL2-9                
1 63237U 25052AD  26178.67220681  .00015869  00000+0  51174-3 0  9990
2 63237  97.3934  73.9793 0008302 103.0341 257.1828 15.32210975 71636
TEVEL2-7                
1 63238U 25052AE  26178.97643429  .00015528  00000+0  50545-3 0  9996
2 63238  97.3939  74.1944 0008370 102.4265 257.7914 15.31916653 71677
TEVEL2-8                
1 63239U 25052AF  26178.98479202  .00016215  00000+0  52788-3 0  9999
2 63239  97.3936  74.1792 0008409 103.1017 257.1163 15.31902386 71670
FORESAIL-1 PRIME        
1 66778U 25276DS  26178.14301976  .00005433  00000+0  26440-3 0  9994
2 66778  97.4203 251.2317 0003890  83.4614 276.7063 15.18788261 31910
